<?xml version="1.0" encoding="UTF-8"?>
<ndm xmlns:xsi="http://www.w3.org/2001/XMLSchema-instance" xsi:noNamespaceSchemaLocation="https://sanaregistry.org/r/ndmxml_unqualified/ndmxml-2.0.0-master-2.0.xsd">
<omm id="CCSDS_OMM_VERS" version="2.0">
<header><CREATION_DATE/><ORIGINATOR/></header><body><segment><metadata><OBJECT_NAME>KUIPER-00027</OBJECT_NAME><OBJECT_ID>2025-088S</OBJECT_ID><CENTER_NAME>EARTH</CENTER_NAME><REF_FRAME>TEME</REF_FRAME><TIME_SYSTEM>UTC</TIME_SYSTEM><MEAN_ELEMENT_THEORY>SGP4</MEAN_ELEMENT_THEORY></metadata><data><meanElements><EPOCH>2025-12-24T15:13:53.621760</EPOCH><MEAN_MOTION>14.79915728</MEAN_MOTION><ECCENTRICITY>.0003753</ECCENTRICITY><INCLINATION>51.9024</INCLINATION><RA_OF_ASC_NODE>67.4682</RA_OF_ASC_NODE><ARG_OF_PERICENTER>278.3117</ARG_OF_PERICENTER><MEAN_ANOMALY>81.7420</MEAN_ANOMALY></meanElements><tleParameters><EPHEMERIS_TYPE>0</EPHEMERIS_TYPE><CLASSIFICATION_TYPE>U</CLASSIFICATION_TYPE><NORAD_CAT_ID>63740</NORAD_CAT_ID><ELEMENT_SET_NO>999</ELEMENT_SET_NO><REV_AT_EPOCH>3650</REV_AT_EPOCH><BSTAR>-.45744E-3</BSTAR><MEAN_MOTION_DOT>-.3706E-4</MEAN_MOTION_DOT><MEAN_MOTION_DDOT>0</MEAN_MOTION_DDOT></tleParameters></data></segment></body></omm>
<omm id="CCSDS_OMM_VERS" version="2.0">
<header><CREATION_DATE/><ORIGINATOR/></header><body><segment><metadata><OBJECT_NAME>KUIPER-00028</OBJECT_NAME><OBJECT_ID>2025-088T</OBJECT_ID><CENTER_NAME>EARTH</CENTER_NAME><REF_FRAME>TEME</REF_FRAME><TIME_SYSTEM>UTC</TIME_SYSTEM><MEAN_ELEMENT_THEORY>SGP4</MEAN_ELEMENT_THEORY></metadata><data><meanElements><EPOCH>2025-12-24T14:01:08.045760</EPOCH><MEAN_MOTION>14.79721344</MEAN_MOTION><ECCENTRICITY>.0003765</ECCENTRICITY><INCLINATION>51.9004</INCLINATION><RA_OF_ASC_NODE>65.6657</RA_OF_ASC_NODE><ARG_OF_PERICENTER>292.4303</ARG_OF_PERICENTER><MEAN_ANOMALY>67.6261</MEAN_ANOMALY></meanElements><tleParameters><EPHEMERIS_TYPE>0</EPHEMERIS_TYPE><CLASSIFICATION_TYPE>U</CLASSIFICATION_TYPE><NORAD_CAT_ID>63741</NORAD_CAT_ID><ELEMENT_SET_NO>999</ELEMENT_SET_NO><REV_AT_EPOCH>3693</REV_AT_EPOCH><BSTAR>.33041E-3</BSTAR><MEAN_MOTION_DOT>.2286E-4</MEAN_MOTION_DOT><MEAN_MOTION_DDOT>0</MEAN_MOTION_DDOT></tleParameters></data></segment></body></omm>
<omm id="CCSDS_OMM_VERS" version="2.0">
<header><CREATION_DATE/><ORIGINATOR/></header><body><segment><metadata><OBJECT_NAME>KUIPER-00029</OBJECT_NAME><OBJECT_ID>2025-088U</OBJECT_ID><CENTER_NAME>EARTH</CENTER_NAME><REF_FRAME>TEME</REF_FRAME><TIME_SYSTEM>UTC</TIME_SYSTEM><MEAN_ELEMENT_THEORY>SGP4</MEAN_ELEMENT_THEORY></metadata><data><meanElements><EPOCH>2025-12-24T15:03:48.534048</EPOCH><MEAN_MOTION>14.76730027</MEAN_MOTION><ECCENTRICITY>.0008266</ECCENTRICITY><INCLINATION>51.9013</INCLINATION><RA_OF_ASC_NODE>63.4301</RA_OF_ASC_NODE><ARG_OF_PERICENTER>232.0584</ARG_OF_PERICENTER><MEAN_ANOMALY>127.9630</MEAN_ANOMALY></meanElements><tleParameters><EPHEMERIS_TYPE>0</EPHEMERIS_TYPE><CLASSIFICATION_TYPE>U</CLASSIFICATION_TYPE><NORAD_CAT_ID>63742</NORAD_CAT_ID><ELEMENT_SET_NO>999</ELEMENT_SET_NO><REV_AT_EPOCH>3649</REV_AT_EPOCH><BSTAR>.73025E-3</BSTAR><MEAN_MOTION_DOT>.4951E-4</MEAN_MOTION_DOT><MEAN_MOTION_DDOT>0</MEAN_MOTION_DDOT></tleParameters></data></segment></body></omm>
<omm id="CCSDS_OMM_VERS" version="2.0">
<header><CREATION_DATE/><ORIGINATOR/></header><body><segment><metadata><OBJECT_NAME>KUIPER-00030</OBJECT_NAME><OBJECT_ID>2025-088V</OBJECT_ID><CENTER_NAME>EARTH</CENTER_NAME><REF_FRAME>TEME</REF_FRAME><TIME_SYSTEM>UTC</TIME_SYSTEM><MEAN_ELEMENT_THEORY>SGP4</MEAN_ELEMENT_THEORY></metadata><data><meanElements><EPOCH>2025-12-24T13:13:21.373248</EPOCH><MEAN_MOTION>14.79984517</MEAN_MOTION><ECCENTRICITY>.0014989</ECCENTRICITY><INCLINATION>51.9025</INCLINATION><RA_OF_ASC_NODE>82.8033</RA_OF_ASC_NODE><ARG_OF_PERICENTER>179.3195</ARG_OF_PERICENTER><MEAN_ANOMALY>180.7790</MEAN_ANOMALY></meanElements><tleParameters><EPHEMERIS_TYPE>0</EPHEMERIS_TYPE><CLASSIFICATION_TYPE>U</CLASSIFICATION_TYPE><NORAD_CAT_ID>63743</NORAD_CAT_ID><ELEMENT_SET_NO>999</ELEMENT_SET_NO><REV_AT_EPOCH>3650</REV_AT_EPOCH><BSTAR>.51899E-3</BSTAR><MEAN_MOTION_DOT>.3746E-4</MEAN_MOTION_DOT><MEAN_MOTION_DDOT>0</MEAN_MOTION_DDOT></tleParameters></data></segment></body></omm>
<omm id="CCSDS_OMM_VERS" version="2.0">
<header><CREATION_DATE/><ORIGINATOR/></header><body><segment><metadata><OBJECT_NAME>KUIPER-00031</OBJECT_NAME><OBJECT_ID>2025-088W</OBJECT_ID><CENTER_NAME>EARTH</CENTER_NAME><REF_FRAME>TEME</REF_FRAME><TIME_SYSTEM>UTC</TIME_SYSTEM><MEAN_ELEMENT_THEORY>SGP4</MEAN_ELEMENT_THEORY></metadata><data><meanElements><EPOCH>2025-12-23T08:23:54.397824</EPOCH><MEAN_MOTION>14.79972130</MEAN_MOTION><ECCENTRICITY>.00037193</ECCENTRICITY><INCLINATION>51.9025</INCLINATION><RA_OF_ASC_NODE>74.1815</RA_OF_ASC_NODE><ARG_OF_PERICENTER>223.0717</ARG_OF_PERICENTER><MEAN_ANOMALY>136.9955</MEAN_ANOMALY></meanElements><tleParameters><EPHEMERIS_TYPE>0</EPHEMERIS_TYPE><CLASSIFICATION_TYPE>U</CLASSIFICATION_TYPE><NORAD_CAT_ID>63744</NORAD_CAT_ID><ELEMENT_SET_NO>999</ELEMENT_SET_NO><REV_AT_EPOCH>3623</REV_AT_EPOCH><BSTAR>.10614478E-3</BSTAR><MEAN_MOTION_DOT>.588E-5</MEAN_MOTION_DOT><MEAN_MOTION_DDOT>0</MEAN_MOTION_DDOT></tleParameters></data></segment></body></omm>
<omm id="CCSDS_OMM_VERS" version="2.0">
<header><CREATION_DATE/><ORIGINATOR/></header><body><segment><metadata><OBJECT_NAME>KUIPER-00032</OBJECT_NAME><OBJECT_ID>2025-088X</OBJECT_ID><CENTER_NAME>EARTH</CENTER_NAME><REF_FRAME>TEME</REF_FRAME><TIME_SYSTEM>UTC</TIME_SYSTEM><MEAN_ELEMENT_THEORY>SGP4</MEAN_ELEMENT_THEORY></metadata><data><meanElements><EPOCH>2025-12-24T02:30:50.206464</EPOCH><MEAN_MOTION>15.33930416</MEAN_MOTION><ECCENTRICITY>.00033002</ECCENTRICITY><INCLINATION>51.8714</INCLINATION><RA_OF_ASC_NODE>28.6862</RA_OF_ASC_NODE><ARG_OF_PERICENTER>216.2969</ARG_OF_PERICENTER><MEAN_ANOMALY>143.7793</MEAN_ANOMALY></meanElements><tleParameters><EPHEMERIS_TYPE>0</EPHEMERIS_TYPE><CLASSIFICATION_TYPE>U</CLASSIFICATION_TYPE><NORAD_CAT_ID>63745</NORAD_CAT_ID><ELEMENT_SET_NO>999</ELEMENT_SET_NO><REV_AT_EPOCH>3793</REV_AT_EPOCH><BSTAR>.44833933E-3</BSTAR><MEAN_MOTION_DOT>.14592E-3</MEAN_MOTION_DOT><MEAN_MOTION_DDOT>0</MEAN_MOTION_DDOT></tleParameters></data></segment></body></omm>
<omm id="CCSDS_OMM_VERS" version="2.0">
<header><CREATION_DATE/><ORIGINATOR/></header><body><segment><metadata><OBJECT_NAME>KUIPER-00033</OBJECT_NAME><OBJECT_ID>2025-088Y</OBJECT_ID><CENTER_NAME>EARTH</CENTER_NAME><REF_FRAME>TEME</REF_FRAME><TIME_SYSTEM>UTC</TIME_SYSTEM><MEAN_ELEMENT_THEORY>SGP4</MEAN_ELEMENT_THEORY></metadata><data><meanElements><EPOCH>2025-12-24T16:02:10.256928</EPOCH><MEAN_MOTION>14.79955301</MEAN_MOTION><ECCENTRICITY>.0002898</ECCENTRICITY><INCLINATION>51.9012</INCLINATION><RA_OF_ASC_NODE>98.3425</RA_OF_ASC_NODE><ARG_OF_PERICENTER>290.5713</ARG_OF_PERICENTER><MEAN_ANOMALY>69.4939</MEAN_ANOMALY></meanElements><tleParameters><EPHEMERIS_TYPE>0</EPHEMERIS_TYPE><CLASSIFICATION_TYPE>U</CLASSIFICATION_TYPE><NORAD_CAT_ID>63746</NORAD_CAT_ID><ELEMENT_SET_NO>999</ELEMENT_SET_NO><REV_AT_EPOCH>3649</REV_AT_EPOCH><BSTAR>-.75498E-3</BSTAR><MEAN_MOTION_DOT>-.5976E-4</MEAN_MOTION_DOT><MEAN_MOTION_DDOT>0</MEAN_MOTION_DDOT></tleParameters></data></segment></body></omm>
<omm id="CCSDS_OMM_VERS" version="2.0">
<header><CREATION_DATE/><ORIGINATOR/></header><body><segment><metadata><OBJECT_NAME>KUIPER-00034</OBJECT_NAME><OBJECT_ID>2025-088Z</OBJECT_ID><CENTER_NAME>EARTH</CENTER_NAME><REF_FRAME>TEME</REF_FRAME><TIME_SYSTEM>UTC</TIME_SYSTEM><MEAN_ELEMENT_THEORY>SGP4</MEAN_ELEMENT_THEORY></metadata><data><meanElements><EPOCH>2025-12-24T13:45:57.835584</EPOCH><MEAN_MOTION>14.79948777</MEAN_MOTION><ECCENTRICITY>.0000839</ECCENTRICITY><INCLINATION>51.9015</INCLINATION><RA_OF_ASC_NODE>61.2760</RA_OF_ASC_NODE><ARG_OF_PERICENTER>240.6843</ARG_OF_PERICENTER><MEAN_ANOMALY>119.4036</MEAN_ANOMALY></meanElements><tleParameters><EPHEMERIS_TYPE>0</EPHEMERIS_TYPE><CLASSIFICATION_TYPE>U</CLASSIFICATION_TYPE><NORAD_CAT_ID>63747</NORAD_CAT_ID><ELEMENT_SET_NO>999</ELEMENT_SET_NO><REV_AT_EPOCH>3668</REV_AT_EPOCH><BSTAR>-.94129E-3</BSTAR><MEAN_MOTION_DOT>-.7392E-4</MEAN_MOTION_DOT><MEAN_MOTION_DDOT>0</MEAN_MOTION_DDOT></tleParameters></data></segment></body></omm>

</ndm>
