KUIPER-00027            
1 63740U 25088S   25358.63464840 -.00003706  00000+0 -45744-3 0  9995
2 63740  51.9024  67.4682 0003753 278.3117  81.7420 14.79915728 36502
KUIPER-00028            
1 63741U 25088T   25358.58412090  .00002286  00000+0  33041-3 0  9997
2 63741  51.9004  65.6657 0003765 292.4303  67.6261 14.79721344 36932
KUIPER-00029            
1 63742U 25088U   25358.62764507  .00004951  00000+0  73025-3 0  9993
2 63742  51.9013  63.4301 0008266 232.0584 127.9630 14.76730027 36493
KUIPER-00030            
1 63743U 25088V   25358.55094182  .00003746  00000+0  51899-3 0  9997
2 63743  51.9025  82.8033 0014989 179.3195 180.7790 14.79984517 36508
KUIPER-00031            
1 63744U 25088W   25357.34993516  .00000588  00000+0  10614-3 0  9994
2 63744  51.9025  74.1815 0003719 223.0717 136.9955 14.79972130 36231
KUIPER-00032            
1 63745U 25088X   25358.10474776  .00014592  00000+0  44834-3 0  9993
2 63745  51.8714  28.6862 0003300 216.2969 143.7793 15.33930416 37937
KUIPER-00033            
1 63746U 25088Y   25358.66817427 -.00005976  00000+0 -75498-3 0  9997
2 63746  51.9012  98.3425 0002898 290.5713  69.4939 14.79955301 36497
KUIPER-00034            
1 63747U 25088Z   25358.57358606 -.00007392  00000+0 -94129-3 0  9993
2 63747  51.9015  61.2760 0000839 240.6843 119.4036 14.79948777 36689
